<?xml version='1.0' encoding='UTF-8'?>
<osm version="0.6" generator="osmium/1.17.0">
  <node id="423211019" version="9" timestamp="2024-01-16T01:01:00Z" lat="38.5406137" lon="-121.7318709">
    <tag k="amenity" v="fast_food"/>
    <tag k="brand" v="Del Taco"/>
    <tag k="brand:wikidata" v="Q1183818"/>
    <tag k="cuisine" v="mexican"/>
    <tag k="drive_through" v="yes"/>
    <tag k="name" v="Del Taco"/>
    <tag k="takeaway" v="yes"/>
  </node>
  <node id="423211592" version="7" timestamp="2024-01-16T01:01:00Z" lat="38.5401034" lon="-121.732615">
    <tag k="addr:city" v="Davis"/>
    <tag k="addr:housenumber" v="1617"/>
    <tag k="addr:postcode" v="95618"/>
    <tag k="addr:state" v="CA"/>
    <tag k="addr:street" v="Research Park Drive"/>
    <tag k="addr:unit" v="#149"/>
    <tag k="alt_name" v="Kentucky Fried Chicken"/>
    <tag k="amenity" v="fast_food"/>
    <tag k="brand" v="KFC"/>
    <tag k="brand:wikidata" v="Q524757"/>
    <tag k="cuisine" v="chicken"/>
    <tag k="delivery" v="no"/>
    <tag k="drive_through" v="yes"/>
    <tag k="name" v="KFC"/>
    <tag k="takeaway" v="yes"/>
    <tag k="website" v="https://locations.kfc.com/ca/davis/1617-research-park-dr"/>
  </node>
  <node id="468215656" version="2" timestamp="2010-07-18T17:48:31Z" lat="38.5447882" lon="-121.7557623">
    <tag k="amenity" v="vending_machine"/>
    <tag k="vending" v="parking_tickets"/>
  </node>
  <node id="480636018" version="2" timestamp="2010-07-18T17:48:43Z" lat="38.535088" lon="-121.7557578">
    <tag k="amenity" v="vending_machine"/>
    <tag k="vending" v="parking_tickets"/>
  </node>
  <node id="518279679" version="2" timestamp="2012-10-06T19:49:51Z" lat="38.5355709" lon="-121.7540429">
    <tag k="amenity" v="cafe"/>
    <tag k="cuisine" v="coffee_shop"/>
    <tag k="name" v="Cargo Coffee"/>
  </node>
  <node id="531004701" version="5" timestamp="2016-01-11T20:40:26Z" lat="38.5362182" lon="-121.7502084">
    <tag k="amenity" v="cafe"/>
    <tag k="cuisine" v="coffee_shop"/>
    <tag k="historic" v="yes"/>
    <tag k="name" v="Sodexho Coffee"/>
    <tag k="toilets:wheelchair" v="no"/>
    <tag k="wheelchair" v="limited"/>
  </node>
  <node id="559255145" version="4" timestamp="2016-01-11T20:42:30Z" lat="38.5401441" lon="-121.755079">
    <tag k="amenity" v="cafe"/>
    <tag k="cuisine" v="coffee_shop"/>
    <tag k="name" v="Bio Brew"/>
    <tag k="toilets:wheelchair" v="yes"/>
    <tag k="wheelchair" v="yes"/>
  </node>
  <node id="559255147" version="5" timestamp="2024-01-16T01:01:00Z" lat="38.5425357" lon="-121.759388">
    <tag k="amenity" v="cafe"/>
    <tag k="brand" v="Peet&apos;s Coffee"/>
    <tag k="brand:wikidata" v="Q1094101"/>
    <tag k="cuisine" v="coffee_shop"/>
    <tag k="name" v="Peet&apos;s Coffee"/>
    <tag k="official_name" v="Starbucks Coffee"/>
    <tag k="takeaway" v="yes"/>
  </node>
  <node id="568121949" version="2" timestamp="2012-10-06T20:17:15Z" lat="38.5385231" lon="-121.753219">
    <tag k="amenity" v="pub"/>
    <tag k="name" v="Gunrock Pub"/>
  </node>
  <node id="573904655" version="1" timestamp="2009-11-29T00:13:00Z" lat="38.5453563" lon="-121.7402534">
    <tag k="amenity" v="restaurant"/>
    <tag k="cuisine" v="pizza"/>
    <tag k="name" v="Steve&apos;s Pizza"/>
  </node>
  <node id="573904656" version="7" timestamp="2024-02-26T13:34:04Z" lat="38.5458515" lon="-121.7398435">
    <tag k="addr:city" v="Davis"/>
    <tag k="addr:housenumber" v="337"/>
    <tag k="addr:postcode" v="95616"/>
    <tag k="addr:state" v="CA"/>
    <tag k="addr:street" v="G Street"/>
    <tag k="amenity" v="fast_food"/>
    <tag k="brand" v="Jack in the Box"/>
    <tag k="brand:wikidata" v="Q1538507"/>
    <tag k="cuisine" v="burger"/>
    <tag k="delivery" v="no"/>
    <tag k="drive_through" v="yes"/>
    <tag k="name" v="Jack in the Box"/>
    <tag k="opening_hours" v="06:00-03:00"/>
    <tag k="operator" v="Jack in the Box"/>
    <tag k="outdoor_seating" v="no"/>
    <tag k="phone" v="15307534565"/>
    <tag k="smoking" v="no"/>
    <tag k="takeaway" v="yes"/>
    <tag k="website" v="https://locations.jackinthebox.com/us/ca/davis/337-g-st"/>
  </node>
  <node id="573904657" version="7" timestamp="2024-05-10T21:22:16Z" lat="38.5468573" lon="-121.7400795">
    <tag k="addr:city" v="Davis"/>
    <tag k="addr:housenumber" v="425"/>
    <tag k="addr:postcode" v="95616"/>
    <tag k="addr:state" v="CA"/>
    <tag k="addr:street" v="G Street"/>
    <tag k="amenity" v="fast_food"/>
    <tag k="brand" v="Taco Bell"/>
    <tag k="brand:wikidata" v="Q752941"/>
    <tag k="cuisine" v="tex-mex"/>
    <tag k="delivery" v="no"/>
    <tag k="drive_through" v="no"/>
    <tag k="name" v="Taco Bell"/>
    <tag k="operator" v="Taco Bell"/>
    <tag k="outdoor_seating" v="no"/>
    <tag k="phone" v="+1 530-758-4172"/>
    <tag k="smoking" v="no"/>
    <tag k="takeaway" v="yes"/>
    <tag k="website" v="https://locations.tacobell.com/ca/davis/425-g-street.html"/>
  </node>
  <node id="573949853" version="7" timestamp="2024-01-16T01:01:00Z" lat="38.5441778" lon="-121.7415972">
    <tag k="amenity" v="cafe"/>
    <tag k="brand" v="Peet&apos;s Coffee"/>
    <tag k="brand:wikidata" v="Q1094101"/>
    <tag k="cuisine" v="coffee_shop"/>
    <tag k="name" v="Peet&apos;s Coffee"/>
    <tag k="takeaway" v="yes"/>
  </node>
  <node id="573949856" version="8" timestamp="2024-05-08T22:29:22Z" lat="38.5440539" lon="-121.7415039">
    <tag k="addr:city" v="Davis"/>
    <tag k="addr:country" v="US"/>
    <tag k="addr:housenumber" v="277"/>
    <tag k="addr:postcode" v="95616"/>
    <tag k="addr:state" v="CA"/>
    <tag k="addr:street" v="E Street"/>
    <tag k="amenity" v="fast_food"/>
    <tag k="brand" v="Chipotle"/>
    <tag k="brand:wikidata" v="Q465751"/>
    <tag k="contact:fax" v="+1 530 758 4285"/>
    <tag k="contact:phone" v="+1 530 758 3599"/>
    <tag k="cuisine" v="mexican"/>
    <tag k="name" v="Chipotle"/>
    <tag k="official_name" v="Chipotle Mexican Grill"/>
    <tag k="phone" v="+1 530-758-3599"/>
    <tag k="takeaway" v="yes"/>
    <tag k="website" v="https://locations.chipotle.com/ca/davis/227-e-st"/>
  </node>
  <node id="573949861" version="6" timestamp="2016-08-20T19:43:58Z" lat="38.544296" lon="-121.7415288">
    <tag k="addr:housenumber" v="231"/>
    <tag k="addr:postcode" v="95616"/>
    <tag k="addr:street" v="E Street"/>
    <tag k="amenity" v="cafe"/>
    <tag k="cuisine" v="ice_cream"/>
    <tag k="internet_access" v="wlan"/>
    <tag k="name" v="CultivÃ© Frozen Yogurt"/>
  </node>
  <node id="575303926" version="2" timestamp="2017-12-23T07:19:44Z" lat="38.5439255" lon="-121.7439648">
    <tag k="addr:city" v="Davis"/>
    <tag k="addr:housenumber" v="330"/>
    <tag k="addr:postcode" v="95616"/>
    <tag k="addr:state" v="CA"/>
    <tag k="addr:street" v="3rd Street"/>
    <tag k="amenity" v="restaurant"/>
    <tag k="cuisine" v="breakfast"/>
    <tag k="delivery" v="no"/>
    <tag k="name" v="Crepeville"/>
    <tag k="outdoor_seating" v="yes"/>
    <tag k="smoking" v="no"/>
  </node>
  <node id="575303927" version="3" timestamp="2017-12-23T06:49:06Z" lat="38.5444325" lon="-121.7435071">
    <tag k="addr:city" v="Davis"/>
    <tag k="addr:housenumber" v="493"/>
    <tag k="addr:postcode" v="95616"/>
    <tag k="addr:state" v="CA"/>
    <tag k="addr:street" v="B Street"/>
    <tag k="amenity" v="restaurant"/>
    <tag k="cuisine" v="burger;fries;drinks"/>
    <tag k="delivery" v="no"/>
    <tag k="name" v="Burgers and Brew"/>
    <tag k="outdoor_seating" v="yes"/>
    <tag k="smoking" v="no"/>
    <tag k="takeaway" v="yes"/>
  </node>
  <node id="575305661" version="2" timestamp="2017-12-23T07:19:43Z" lat="38.5447882" lon="-121.7435698">
    <tag k="addr:city" v="Davis"/>
    <tag k="addr:housenumber" v="316"/>
    <tag k="addr:postcode" v="95616"/>
    <tag k="addr:state" v="CA"/>
    <tag k="addr:street" v="C Street"/>
    <tag k="amenity" v="ice_cream"/>
    <tag k="cuisine" v="ice_cream"/>
    <tag k="delivery" v="no"/>
    <tag k="name" v="Yolo Berry"/>
  </node>
  <node id="575310005" version="1" timestamp="2009-11-30T00:29:16Z" lat="38.545865" lon="-121.7408329">
    <tag k="amenity" v="restaurant"/>
    <tag k="name" v="Silver Dragon"/>
  </node>
  <node id="575310006" version="4" timestamp="2017-12-23T19:31:08Z" lat="38.5463737" lon="-121.7395109">
    <tag k="addr:city" v="Davis"/>
    <tag k="addr:housenumber" v="400"/>
    <tag k="addr:postcode" v="95616"/>
    <tag k="addr:state" v="CA"/>
    <tag k="addr:street" v="G Street"/>
    <tag k="amenity" v="restaurant"/>
    <tag k="cuisine" v="japanese;sushi;seafood"/>
    <tag k="delivery" v="no"/>
    <tag k="name" v="Make Fish"/>
    <tag k="opening_hours" v="11:00-22:00"/>
    <tag k="outdoor_seating" v="no"/>
    <tag k="phone" v="(530) 231-5537"/>
    <tag k="smoking" v="no"/>
    <tag k="takeaway" v="yes"/>
  </node>
  <node id="575311635" version="4" timestamp="2021-12-09T01:01:52Z" lat="38.5444122" lon="-121.7398507">
    <tag k="amenity" v="restaurant"/>
    <tag k="cuisine" v="regional"/>
    <tag k="name" v="Bistro 33"/>
  </node>
  <node id="575317875" version="4" timestamp="2023-01-23T18:04:44Z" lat="38.5441905" lon="-121.7392394">
    <tag k="addr:city" v="Davis"/>
    <tag k="addr:housenumber" v="219"/>
    <tag k="addr:postcode" v="95616"/>
    <tag k="addr:state" v="CA"/>
    <tag k="addr:street" v="G Street"/>
    <tag k="amenity" v="restaurant"/>
    <tag k="cuisine" v="pizza;salad;wings"/>
    <tag k="delivery" v="yes"/>
    <tag k="name" v="Woodstock&apos;s Pizza"/>
    <tag k="opening_hours" v="11:00-01:00"/>
    <tag k="outdoor_seating" v="no"/>
    <tag k="phone" v="(530) 757-2525"/>
    <tag k="smoking" v="no"/>
    <tag k="takeaway" v="yes"/>
  </node>
  <node id="575317879" version="1" timestamp="2009-11-30T00:37:35Z" lat="38.5446259" lon="-121.7389677">
    <tag k="amenity" v="restaurant"/>
    <tag k="name" v="Kathmandu Kitchen"/>
  </node>
  <node id="575320248" version="2" timestamp="2021-10-04T19:46:56Z" lat="38.543607" lon="-121.738351">
    <tag k="amenity" v="cafe"/>
    <tag k="name" v="Village Bakery"/>
  </node>
  <node id="575324530" version="3" timestamp="2021-12-16T22:46:50Z" lat="38.5426469" lon="-121.7414341">
    <tag k="amenity" v="restaurant"/>
    <tag k="name" v="Davis Noodle City"/>
  </node>
  <node id="575324532" version="3" timestamp="2020-11-10T03:06:00Z" lat="38.5424125" lon="-121.740975">
    <tag k="amenity" v="cafe"/>
    <tag k="cuisine" v="ice_cream"/>
    <tag k="name" v="Davis Creamery"/>
  </node>
  <node id="575324533" version="4" timestamp="2012-06-16T18:13:04Z" lat="38.5427594" lon="-121.7413407">
    <tag k="amenity" v="restaurant"/>
    <tag k="cuisine" v="thai"/>
    <tag k="name" v="Sophia&apos;s Thai Kitchen"/>
  </node>
  <node id="576438970" version="3" timestamp="2020-03-31T22:02:16Z" lat="38.5463469" lon="-121.739978">
    <tag k="addr:housenumber" v="403"/>
    <tag k="addr:street" v="G Street"/>
    <tag k="amenity" v="restaurant"/>
    <tag k="cuisine" v="pizza"/>
    <tag k="name" v="Village Pizza &amp; Grill"/>
  </node>
  <node id="596690045" version="2" timestamp="2017-12-23T07:19:44Z" lat="38.5403753" lon="-121.7388877">
    <tag k="amenity" v="restaurant"/>
    <tag k="cuisine" v="burger;american"/>
    <tag k="delivery" v="yes"/>
    <tag k="drive_through" v="no"/>
    <tag k="name" v="Redrum Burger"/>
    <tag k="outdoor_seating" v="yes"/>
  </node>
  <node id="597045846" version="9" timestamp="2024-06-20T01:42:44Z" lat="38.5501286" lon="-121.6947587">
    <tag k="addr:city" v="Davis"/>
    <tag k="addr:housenumber" v="403"/>
    <tag k="addr:postcode" v="95618"/>
    <tag k="addr:state" v="CA"/>
    <tag k="addr:street" v="Mace Boulevard"/>
    <tag k="amenity" v="cafe"/>
    <tag k="branch" v="Mace &amp; Highway 80 - Davis"/>
    <tag k="brand" v="Starbucks"/>
    <tag k="brand:wikidata" v="Q37158"/>
    <tag k="cuisine" v="coffee_shop"/>
    <tag k="name" v="Starbucks"/>
    <tag k="official_name" v="Starbucks Coffee"/>
    <tag k="outdoor_seating" v="yes"/>
    <tag k="phone" v="+1 530-650-5875"/>
    <tag k="ref" v="1010235"/>
    <tag k="takeaway" v="yes"/>
    <tag k="website" v="https://www.starbucks.com/store-locator/store/1010235/mace-hwy-80-davis-403-mace-blvd-davis-ca-956186019-us"/>
  </node>
  <node id="597502863" version="2" timestamp="2013-05-01T04:02:29Z" lat="38.5498433" lon="-121.6959869">
    <tag k="amenity" v="restaurant"/>
    <tag k="cuisine" v="mexican"/>
    <tag k="name" v="Taqueria Guadalajara"/>
    <tag k="phone" v="+1 530-753-6100"/>
  </node>
  <node id="632005117" version="1" timestamp="2010-02-07T00:24:19Z" lat="38.5624167" lon="-121.7656713">
    <tag k="amenity" v="restaurant"/>
    <tag k="cuisine" v="mexican"/>
    <tag k="name" v="Dos Coyotes"/>
  </node>
  <node id="632005118" version="3" timestamp="2020-05-14T09:01:28Z" lat="38.5624149" lon="-121.7653126">
    <tag k="amenity" v="fast_food"/>
    <tag k="brand" v="Noah&apos;s Bagels"/>
    <tag k="brand:wikidata" v="Q64517373"/>
    <tag k="cuisine" v="bagel"/>
    <tag k="name" v="Noah&apos;s Bagels"/>
    <tag k="official_name" v="Noah&apos;s New York Bagels"/>
    <tag k="takeaway" v="yes"/>
  </node>
  <node id="632005119" version="5" timestamp="2024-06-05T10:31:12Z" lat="38.5621647" lon="-121.7648922">
    <tag k="addr:city" v="Davis"/>
    <tag k="addr:housenumber" v="1361"/>
    <tag k="addr:postcode" v="95616"/>
    <tag k="addr:state" v="CA"/>
    <tag k="addr:street" v="West Covell Boulevard"/>
    <tag k="addr:unit" v="115"/>
    <tag k="alt_name" v="Jamba Juice"/>
    <tag k="amenity" v="fast_food"/>
    <tag k="branch" v="Davis II"/>
    <tag k="brand" v="Jamba"/>
    <tag k="brand:wikidata" v="Q3088784"/>
    <tag k="cuisine" v="juice"/>
    <tag k="name" v="Jamba"/>
    <tag k="opening_hours" v="08:00-20:00"/>
    <tag k="phone" v="+1 530-757-7050"/>
    <tag k="takeaway" v="yes"/>
    <tag k="website" v="https://locations.jamba.com/ca/davis/1361-w-covell-blvd"/>
  </node>
  <node id="710823973" version="8" timestamp="2024-01-16T01:01:00Z" lat="38.547152" lon="-121.7604299">
    <tag k="amenity" v="cafe"/>
    <tag k="brand" v="Starbucks"/>
    <tag k="brand:wikidata" v="Q37158"/>
    <tag k="check_date" v="2012"/>
    <tag k="cuisine" v="coffee_shop"/>
    <tag k="name" v="Starbucks"/>
    <tag k="official_name" v="Starbucks Coffee"/>
    <tag k="takeaway" v="yes"/>
  </node>
  <node id="711012118" version="1" timestamp="2010-04-28T22:11:44Z" lat="38.5537594" lon="-121.7866957">
    <tag k="amenity" v="fast_food"/>
    <tag k="name" v="Lamppost Pizza"/>
  </node>
  <node id="711012122" version="1" timestamp="2010-04-28T22:11:45Z" lat="38.5539105" lon="-121.7866839">
    <tag k="amenity" v="restaurant"/>
    <tag k="name" v="Shanghai Town"/>
  </node>
  <node id="712375145" version="3" timestamp="2019-11-26T05:09:58Z" lat="38.5541402" lon="-121.7867753">
    <tag k="amenity" v="restaurant"/>
    <tag k="name" v="Chuy&apos;s Taqueria"/>
  </node>
  <node id="721785315" version="3" timestamp="2013-12-22T01:43:29Z" lat="38.5527527" lon="-121.7312411">
    <tag k="amenity" v="restaurant"/>
    <tag k="name" v="Symposium Restaurant &amp; Pizza House"/>
  </node>
  <node id="722618705" version="2" timestamp="2010-07-04T18:25:48Z" lat="38.5450234" lon="-121.7394732">
    <tag k="amenity" v="restaurant"/>
    <tag k="cuisine" v="thai"/>
    <tag k="name" v="Taste of Thai"/>
  </node>
  <node id="722643565" version="4" timestamp="2021-12-16T22:46:50Z" lat="38.5427956" lon="-121.7411241">
    <tag k="amenity" v="fast_food"/>
    <tag k="cuisine" v="hot_dog"/>
    <tag k="name" v="The Hotdogger"/>
  </node>
  <node id="722643566" version="4" timestamp="2023-01-23T18:04:44Z" lat="38.5426503" lon="-121.7411315">
    <tag k="amenity" v="restaurant"/>
    <tag k="cuisine" v="chinese;dumpling"/>
    <tag k="name" v="The Dumpling House"/>
  </node>
  <node id="722863898" version="1" timestamp="2010-05-05T19:34:18Z" lat="38.5600975" lon="-121.7434038">
    <tag k="amenity" v="fast_food"/>
    <tag k="name" v="Snack Shack"/>
  </node>
  <node id="857054549" version="4" timestamp="2021-07-23T22:14:35Z" lat="38.5470702" lon="-121.7255933">
    <tag k="amenity" v="pub"/>
    <tag k="name" v="Sudwerk Brewing Co. The Dock"/>
  </node>
  <node id="1192381625" version="4" timestamp="2024-01-16T01:01:00Z" lat="38.5413471" lon="-121.740684">
    <tag k="alt_name" v="Habit Burger Grill"/>
    <tag k="amenity" v="fast_food"/>
    <tag k="brand" v="The Habit Burger Grill"/>
    <tag k="brand:wikidata" v="Q18158741"/>
    <tag k="cuisine" v="burger"/>
    <tag k="name" v="The Habit Burger Grill"/>
    <tag k="short_name" v="Habit Burger"/>
    <tag k="takeaway" v="yes"/>
  </node>
  <node id="1192381864" version="2" timestamp="2012-10-01T20:08:01Z" lat="38.5414043" lon="-121.740992">
    <tag k="amenity" v="restaurant"/>
    <tag k="cuisine" v="sushi"/>
    <tag k="name" v="Mikuni&apos;s"/>
  </node>
  <node id="1782181718" version="2" timestamp="2024-04-27T05:10:31Z" lat="38.5328245" lon="-121.7939042">
    <tag k="amenity" v="vending_machine"/>
    <tag k="check_date" v="2024-04-26"/>
    <tag k="vending" v="parking_tickets"/>
  </node>
  <node id="1783152761" version="2" timestamp="2012-09-05T04:06:23Z" lat="38.541912" lon="-121.7695695">
    <tag k="amenity" v="bbq"/>
    <tag k="covered" v="no"/>
    <tag k="fuel" v="charcoal"/>
  </node>
  <node id="1897714587" version="6" timestamp="2024-05-08T10:34:22Z" lat="38.5448365" lon="-121.7408098">
    <tag k="addr:city" v="Davis"/>
    <tag k="addr:country" v="US"/>
    <tag k="addr:housenumber" v="609"/>
    <tag k="addr:postcode" v="95616"/>
    <tag k="addr:state" v="CA"/>
    <tag k="addr:street" v="3rd Street"/>
    <tag k="amenity" v="fast_food"/>
    <tag k="brand" v="Panera Bread"/>
    <tag k="brand:wikidata" v="Q7130852"/>
    <tag k="contact:fax" v="+1 530 757 1317"/>
    <tag k="contact:phone" v="+1 530 757 1317"/>
    <tag k="contact:website" v="http://www.panerabread.com/"/>
    <tag k="cuisine" v="sandwich;bakery"/>
    <tag k="name" v="Panera Bread"/>
    <tag k="opening_hours" v="07:00-20:00"/>
    <tag k="phone" v="+1 530-757-1235"/>
    <tag k="short_name" v="Panera"/>
    <tag k="takeaway" v="yes"/>
    <tag k="website" v="https://locations.panerabread.com/ca/davis/609-3rd-st.html"/>
  </node>
  <node id="1899053844" version="4" timestamp="2022-08-01T01:50:32Z" lat="38.5388121" lon="-121.7524534">
    <tag k="amenity" v="fast_food"/>
    <tag k="drive_through" v="no"/>
    <tag k="name" v="Shah&apos;s Halal Food"/>
    <tag k="wheelchair" v="limited"/>
  </node>
  <node id="1899064831" version="5" timestamp="2024-01-16T01:01:00Z" lat="38.5387653" lon="-121.752753">
    <tag k="amenity" v="cafe"/>
    <tag k="brand" v="Peet&apos;s Coffee"/>
    <tag k="brand:wikidata" v="Q1094101"/>
    <tag k="cuisine" v="coffee_shop"/>
    <tag k="name" v="Peet&apos;s Coffee"/>
    <tag k="takeaway" v="yes"/>
  </node>
  <node id="1899070842" version="2" timestamp="2012-09-09T22:38:16Z" lat="38.5393577" lon="-121.7516371">
    <tag k="amenity" v="cafe"/>
    <tag k="name" v="CoHo South CafÃ©"/>
  </node>
  <node id="1899083425" version="2" timestamp="2023-05-05T22:41:36Z" lat="38.5472347" lon="-121.7633203">
    <tag k="addr:city" v="Davis"/>
    <tag k="addr:housenumber" v="565"/>
    <tag k="addr:postcode" v="95616"/>
    <tag k="addr:street" v="Oxford Circle"/>
    <tag k="amenity" v="restaurant"/>
    <tag k="name" v="Cuarto Dining Commons"/>
  </node>
  <node id="1899083429" version="4" timestamp="2024-08-22T05:39:03Z" lat="38.5438979" lon="-121.758151">
    <tag k="amenity" v="restaurant"/>
    <tag k="bar" v="no"/>
    <tag k="check_date" v="2024-08-21"/>
    <tag k="cuisine" v="american;burger;sandwich;chicken;breakfast"/>
    <tag k="description" v="amenity=fast_food,fast_food=yes,fast_food=cafeteria,fast_food=shawarma,ðŸ”,multiple restaurants serving different cuisines"/>
    <tag k="diet:gluten_free" v="yes"/>
    <tag k="diet:halal" v="yes"/>
    <tag k="diet:meat" v="yes"/>
    <tag k="diet:non-halal" v="yes"/>
    <tag k="diet:non-vegetarian" v="yes"/>
    <tag k="diet:vegan" v="yes"/>
    <tag k="diet:vegetarian" v="yes"/>
    <tag k="email" v="studenthousing@ucdavis.edu"/>
    <tag k="internet_access" v="wlan"/>
    <tag k="internet_access:fee" v="no"/>
    <tag k="microbrewery" v="no"/>
    <tag k="name" v="Segundo Dining Commons"/>
    <tag k="note" v="amenity=fast_food,fast_food=yes,fast_food=cafeteria,fast_food=shawarma,ðŸ”"/>
    <tag k="opening_hours" v="Mo-Fr 07:00-22:00, Sa,Su 21:00-20:00"/>
    <tag k="smoking" v="no"/>
    <tag k="source" v="local knowledge"/>
    <tag k="toilets" v="yes"/>
    <tag k="toilets:menstrual_products" v="no"/>
    <tag k="website" v="https://housing.ucdavis.edu/dining/dining-commons/segundo/"/>
    <tag k="website:menu" v="https://housing.ucdavis.edu/dining/menus/dining-commons/segundo/"/>
    <tag k="wheelchair" v="yes"/>
  </node>
  <node id="1899083432" version="1" timestamp="2012-09-04T21:30:44Z" lat="38.5360511" lon="-121.7576164">
    <tag k="amenity" v="restaurant"/>
    <tag k="name" v="Tercero Dining Commons"/>
  </node>
  <node id="1899151443" version="1" timestamp="2012-09-04T22:50:38Z" lat="38.5408029" lon="-121.7706445">
    <tag k="access" v="private"/>
    <tag k="amenity" v="bbq"/>
    <tag k="covered" v="yes"/>
    <tag k="fuel" v="natural_gas"/>
  </node>
  <node id="1899545094" version="5" timestamp="2024-05-14T13:03:11Z" lat="38.5620384" lon="-121.769157">
    <tag k="addr:city" v="Davis"/>
    <tag k="addr:housenumber" v="2026"/>
    <tag k="addr:postcode" v="95616-6203"/>
    <tag k="addr:state" v="CA"/>
    <tag k="addr:street" v="Lyndell Terrace"/>
    <tag k="amenity" v="fast_food"/>
    <tag k="brand" v="Burger King"/>
    <tag k="brand:wikidata" v="Q177054"/>
    <tag k="cuisine" v="burger"/>
    <tag k="delivery" v="yes"/>
    <tag k="drive_through" v="yes"/>
    <tag k="internet_access" v="wlan"/>
    <tag k="name" v="Burger King"/>
    <tag k="opening_hours" v="Mo-Fr 06:00-22:00; Sa-Su 07:00-22:00"/>
    <tag k="phone" v="+1 530-297-5700"/>
    <tag k="ref" v="17484"/>
    <tag k="takeaway" v="yes"/>
    <tag k="website" v="https://www.bk.com/store-locator/store/restaurant_11148"/>
  </node>
  <node id="1899545097" version="8" timestamp="2024-05-08T23:14:10Z" lat="38.56248" lon="-121.7689638">
    <tag k="amenity" v="fast_food"/>
    <tag k="brand" v="Domino&apos;s"/>
    <tag k="brand:wikidata" v="Q839466"/>
    <tag k="cuisine" v="pizza"/>
    <tag k="fixme:atp" v="Check if still exists. No corresponding ATP object."/>
    <tag k="name" v="Domino&apos;s"/>
    <tag k="short_name" v="Domino&apos;s"/>
    <tag k="takeaway" v="yes"/>
  </node>
  <node id="1902749050" version="1" timestamp="2012-09-06T18:06:49Z" lat="38.5447718" lon="-121.7389028">
    <tag k="amenity" v="bar"/>
    <tag k="name" v="KetMoRee"/>
  </node>
  <node id="1918194126" version="1" timestamp="2012-09-17T06:17:41Z" lat="38.5517714" lon="-121.7183275">
    <tag k="amenity" v="cafe"/>
    <tag k="name" v="Konditorei"/>
  </node>
  <node id="2188177613" version="1" timestamp="2013-03-06T08:44:18Z" lat="38.559882" lon="-121.7567034">
    <tag k="amenity" v="restaurant"/>
    <tag k="cuisine" v="asian"/>
    <tag k="name" v="Ding How"/>
    <tag k="phone" v="+1 530-753-3590"/>
    <tag k="website" v="http://www.dinghowdavis.com/"/>
  </node>
  <node id="2188177614" version="4" timestamp="2024-01-16T01:01:00Z" lat="38.5598902" lon="-121.757225">
    <tag k="amenity" v="fast_food"/>
    <tag k="brand" v="Papa Murphy&apos;s"/>
    <tag k="brand:wikidata" v="Q7132349"/>
    <tag k="cuisine" v="pizza"/>
    <tag k="name" v="Papa Murphy&apos;s"/>
    <tag k="official_name" v="Papa Murphy&apos;s Take &apos;N&apos; Bake Pizza"/>
    <tag k="phone" v="+1 530-753-3999"/>
    <tag k="takeaway" v="only"/>
    <tag k="website" v="https://www.papamurphys.com/"/>
  </node>
  <node id="2188177615" version="3" timestamp="2024-01-16T01:01:00Z" lat="38.5598917" lon="-121.7571096">
    <tag k="amenity" v="cafe"/>
    <tag k="brand" v="Quickly"/>
    <tag k="brand:en" v="Quickly"/>
    <tag k="brand:wikidata" v="Q3771463"/>
    <tag k="brand:zh" v="å¿«å¯ç«‹"/>
    <tag k="cuisine" v="bubble_tea"/>
    <tag k="name" v="Quickly"/>
    <tag k="name:en" v="Quickly"/>
    <tag k="name:zh" v="å¿«å¯ç«‹"/>
    <tag k="phone" v="+1 530-750-7888"/>
    <tag k="takeaway" v="yes"/>
    <tag k="website" v="http://www.quicklyusa.com/"/>
  </node>
  <node id="2188177618" version="2" timestamp="2024-09-06T08:04:24Z" lat="38.5603258" lon="-121.7567216">
    <tag k="amenity" v="restaurant"/>
    <tag k="contact:facebook" v="https://www.facebook.com/I-Love-Sushi-104845392277160"/>
    <tag k="cuisine" v="japanese;sushi"/>
    <tag k="name" v="I Love Sushi"/>
    <tag k="phone" v="+1 530-758-4560"/>
    <tag k="website" v="https://www.ilovesushiucdavis.com/"/>
  </node>
  <node id="2188177619" version="2" timestamp="2016-09-01T23:54:06Z" lat="38.5598886" lon="-121.7569803">
    <tag k="addr:housenumber" v="640E"/>
    <tag k="addr:postcode" v="95616"/>
    <tag k="addr:street" v="West Covell Boulevard"/>
    <tag k="amenity" v="restaurant"/>
    <tag k="cuisine" v="mexican"/>
    <tag k="name" v="Taqueria Guadalajara"/>
    <tag k="opening_hours" v="Mo-Th 08:00-21:30; Fr-Su 08:00-22:00"/>
    <tag k="phone" v="+1 530-297-4000"/>
  </node>
  <node id="2281654805" version="3" timestamp="2022-08-01T01:11:42Z" lat="38.5411914" lon="-121.7717568">
    <tag k="addr:city" v="Davis"/>
    <tag k="addr:country" v="US"/>
    <tag k="addr:housenumber" v="201"/>
    <tag k="addr:postcode" v="94566"/>
    <tag k="addr:street" v="Sage Street"/>
    <tag k="amenity" v="cafe"/>
    <tag k="name" v="Sage Street Cafe"/>
    <tag k="opening_hours" v="Mo-Fr 08:00-14:00"/>
    <tag k="operator" v="Sodexo, Inc."/>
    <tag k="outdoor_seating" v="yes"/>
    <tag k="phone" v="+1 530-759-0661"/>
    <tag k="website" v="https://housing.ucdavis.edu/dining/sage-street/"/>
  </node>
  <node id="2281654809" version="3" timestamp="2022-08-01T01:11:42Z" lat="38.5412393" lon="-121.771755">
    <tag k="addr:city" v="Davis"/>
    <tag k="addr:country" v="US"/>
    <tag k="addr:housenumber" v="201"/>
    <tag k="addr:postcode" v="94566"/>
    <tag k="addr:street" v="Sage Street"/>
    <tag k="amenity" v="restaurant"/>
    <tag k="name" v="Sage Street Restaurant"/>
    <tag k="operator" v="Sodexo, Inc."/>
    <tag k="phone" v="+1 530-759-0662"/>
    <tag k="website" v="https://housing.ucdavis.edu/dining/sage-street/"/>
  </node>
  <node id="2287617318" version="1" timestamp="2013-05-01T04:02:28Z" lat="38.5493703" lon="-121.6960342">
    <tag k="amenity" v="restaurant"/>
    <tag k="cuisine" v="chinese"/>
    <tag k="name" v="Wok of Flame"/>
    <tag k="phone" v="+1 530-753-0888"/>
  </node>
  <node id="2312172449" version="3" timestamp="2023-05-05T22:41:36Z" lat="38.5475996" lon="-121.7594716">
    <tag k="addr:city" v="Davis"/>
    <tag k="addr:housenumber" v="757"/>
    <tag k="addr:postcode" v="95616"/>
    <tag k="addr:street" v="Russell Boulevard"/>
    <tag k="amenity" v="cafe"/>
    <tag k="internet_access" v="yes"/>
    <tag k="name" v="Fluffy Donuts"/>
    <tag k="phone" v="+1 530-756-2037"/>
  </node>
  <node id="2312172451" version="2" timestamp="2023-05-05T22:41:36Z" lat="38.5471499" lon="-121.7601646">
    <tag k="addr:city" v="Davis"/>
    <tag k="addr:housenumber" v="825"/>
    <tag k="addr:postcode" v="95616"/>
    <tag k="addr:street" v="Russell Boulevard"/>
    <tag k="amenity" v="cafe"/>
    <tag k="name" v="The Old Teahouse"/>
    <tag k="phone" v="+1 530-297-5150"/>
    <tag k="website" v="https://www.theoldteahousedavis.com/"/>
  </node>
  <node id="2312172452" version="2" timestamp="2023-11-18T01:14:53Z" lat="38.5471609" lon="-121.7597802">
    <tag k="amenity" v="pub"/>
    <tag k="name" v="The Graduate"/>
    <tag k="phone" v="+1 530-758-4723"/>
    <tag k="website" v="https://www.davisgrad.com/"/>
  </node>
  <node id="2320122134" version="2" timestamp="2013-12-23T17:38:32Z" lat="38.5421672" lon="-121.7498911">
    <tag k="amenity" v="restaurant"/>
    <tag k="name" v="Coffee House"/>
  </node>
  <node id="2522504674" version="2" timestamp="2013-12-14T07:51:00Z" lat="38.5457947" lon="-121.7413498">
    <tag k="addr:city" v="Davis"/>
    <tag k="addr:housenumber" v="624"/>
    <tag k="addr:postcode" v="95616"/>
    <tag k="addr:street" v="4th Street"/>
    <tag k="amenity" v="restaurant"/>
    <tag k="cuisine" v="organic;local"/>
    <tag k="gluten_free" v="yes"/>
    <tag k="name" v="Natural Food Works and Farmer&apos;s Kitchen Cafe"/>
    <tag k="phone" v="+1 530-756-1862"/>
    <tag k="source" v="happy customer"/>
    <tag k="website" v="http://naturalfoodworks.com/"/>
  </node>
  <node id="2588098686" version="8" timestamp="2024-07-19T16:45:53Z" lat="38.540504" lon="-121.7385765">
    <tag k="addr:city" v="Davis"/>
    <tag k="addr:housenumber" v="980"/>
    <tag k="addr:postcode" v="95616"/>
    <tag k="addr:state" v="CA"/>
    <tag k="addr:street" v="West Olive Drive"/>
    <tag k="amenity" v="cafe"/>
    <tag k="branch" v="Davis"/>
    <tag k="brand" v="Dutch Bros. Coffee"/>
    <tag k="brand:wikidata" v="Q5317253"/>
    <tag k="cuisine" v="coffee_shop"/>
    <tag k="name" v="Dutch Bros. Coffee"/>
    <tag k="opening_hours" v="05:00-23:00"/>
    <tag k="ref" v="DB188"/>
    <tag k="takeaway" v="only"/>
    <tag k="website" v="https://locations.dutchbros.com/dutch-bros-coffee-1c88915ce9e7"/>
  </node>
  <node id="2588178992" version="2" timestamp="2014-01-02T19:25:51Z" lat="38.5441675" lon="-121.742676">
    <tag k="addr:city" v="Davis"/>
    <tag k="addr:housenumber" v="237"/>
    <tag k="addr:postcode" v="95616"/>
    <tag k="addr:street" v="D Street"/>
    <tag k="amenity" v="restaurant"/>
    <tag k="cuisine" v="mexican"/>
    <tag k="name" v="El Toro Bravo"/>
  </node>
  <node id="2588614218" version="5" timestamp="2024-05-19T11:55:47Z" lat="38.5434952" lon="-121.7385361">
    <tag k="amenity" v="fast_food"/>
    <tag k="brand" v="Subway"/>
    <tag k="brand:wikidata" v="Q244457"/>
    <tag k="cuisine" v="sandwich"/>
    <tag k="fixme:atp" v="no ATP match, check if still exists"/>
    <tag k="name" v="Subway"/>
    <tag k="takeaway" v="yes"/>
  </node>
  <node id="2589821399" version="5" timestamp="2024-01-16T01:01:00Z" lat="38.5423604" lon="-121.7253036">
    <tag k="addr:city" v="Davis"/>
    <tag k="addr:housenumber" v="2151"/>
    <tag k="addr:postcode" v="95618"/>
    <tag k="addr:state" v="CA"/>
    <tag k="addr:street" v="Cowell Boulevard"/>
    <tag k="addr:unit" v="Suite A"/>
    <tag k="amenity" v="restaurant"/>
    <tag k="brand" v="Round Table Pizza"/>
    <tag k="brand:wikidata" v="Q7371139"/>
    <tag k="cuisine" v="pizza"/>
    <tag k="delivery" v="yes"/>
    <tag k="name" v="Round Table Pizza"/>
    <tag k="opening_hours" v="Su-Th 11:00-22:00; Fr-Sa 11:00-22:30"/>
    <tag k="outdoor_seating" v="no"/>
    <tag k="phone" v="+1-530-753-1883"/>
    <tag k="smoking" v="no"/>
    <tag k="source" v="local knowledge"/>
    <tag k="takeaway" v="yes"/>
    <tag k="wheelchair" v="yes"/>
  </node>
  <node id="2589823921" version="5" timestamp="2024-05-19T11:55:47Z" lat="38.5503117" lon="-121.6935776">
    <tag k="addr:city" v="Davis"/>
    <tag k="addr:housenumber" v="4748"/>
    <tag k="addr:postcode" v="95618"/>
    <tag k="addr:state" v="CA"/>
    <tag k="addr:street" v="Chiles Road"/>
    <tag k="amenity" v="fast_food"/>
    <tag k="brand" v="Subway"/>
    <tag k="brand:wikidata" v="Q244457"/>
    <tag k="cuisine" v="sandwich"/>
    <tag k="name" v="Subway"/>
    <tag k="opening_hours" v="07:00-22:00"/>
    <tag k="phone" v="+1 530-753-2141"/>
    <tag k="takeaway" v="yes"/>
    <tag k="website" v="https://restaurants.subway.com/united-states/ca/davis/4748-chiles-rd"/>
  </node>
  <node id="2589920867" version="2" timestamp="2023-05-14T07:40:51Z" lat="38.5438337" lon="-121.7463304">
    <tag k="addr:city" v="Davis"/>
    <tag k="addr:housenumber" v="223"/>
    <tag k="addr:postcode" v="95616"/>
    <tag k="addr:street" v="3rd Street"/>
    <tag k="amenity" v="restaurant"/>
    <tag k="name" v="3rd and U Cafe"/>
  </node>
  <node id="2590576994" version="5" timestamp="2024-05-19T11:55:47Z" lat="38.5476226" lon="-121.7593509">
    <tag k="addr:city" v="Davis"/>
    <tag k="addr:housenumber" v="757"/>
    <tag k="addr:postcode" v="95616"/>
    <tag k="addr:state" v="CA"/>
    <tag k="addr:street" v="Russell Boulevard"/>
    <tag k="addr:unit" v="29"/>
    <tag k="amenity" v="fast_food"/>
    <tag k="brand" v="Subway"/>
    <tag k="brand:wikidata" v="Q244457"/>
    <tag k="cuisine" v="sandwich"/>
    <tag k="name" v="Subway"/>
    <tag k="opening_hours" v="08:00-21:00"/>
    <tag k="phone" v="+1 530-753-3223"/>
    <tag k="takeaway" v="yes"/>
    <tag k="website" v="https://restaurants.subway.com/united-states/ca/davis/757-russell-blvd"/>
  </node>
  <node id="2616889089" version="1" timestamp="2014-01-10T04:12:00Z" lat="38.543549" lon="-121.7463907">
    <tag k="addr:housenumber" v="220"/>
    <tag k="addr:street" v="3rd Street"/>
    <tag k="amenity" v="restaurant"/>
    <tag k="name" v="Ali Baba Cafe"/>
    <tag k="phone" v="(530) 758-2251"/>
    <tag k="source" v="survey"/>
  </node>
  <node id="2616889093" version="2" timestamp="2019-12-11T21:10:40Z" lat="38.5436024" lon="-121.7461204">
    <tag k="addr:housenumber" v="226"/>
    <tag k="addr:street" v="3rd Street"/>
    <tag k="amenity" v="restaurant"/>
    <tag k="name" v="Pho King 4 Restaurant"/>
  </node>
  <node id="2616889094" version="1" timestamp="2014-01-10T04:12:01Z" lat="38.5436814" lon="-121.7468936">
    <tag k="addr:housenumber" v="207"/>
    <tag k="addr:street" v="3rd Street"/>
    <tag k="amenity" v="restaurant"/>
    <tag k="name" v="Oshio Cafe"/>
    <tag k="phone" v="530-750-5012"/>
    <tag k="source" v="survey"/>
  </node>
  <node id="2616889095" version="2" timestamp="2023-05-14T07:40:51Z" lat="38.5437545" lon="-121.7466232">
    <tag k="addr:city" v="Davis"/>
    <tag k="addr:housenumber" v="207"/>
    <tag k="addr:postcode" v="95616"/>
    <tag k="addr:street" v="3rd Street"/>
    <tag k="amenity" v="restaurant"/>
    <tag k="name" v="Raja&apos;s Tandoor"/>
    <tag k="phone" v="(530) 753-9664"/>
    <tag k="source" v="survey"/>
  </node>
  <node id="2618170088" version="5" timestamp="2024-06-04T10:15:39Z" lat="38.5442234" lon="-121.7411866">
    <tag k="addr:city" v="Davis"/>
    <tag k="addr:housenumber" v="236"/>
    <tag k="addr:postcode" v="95616"/>
    <tag k="addr:state" v="CA"/>
    <tag k="addr:street" v="E Street"/>
    <tag k="amenity" v="ice_cream"/>
    <tag k="brand" v="Baskin-Robbins"/>
    <tag k="brand:wikidata" v="Q584601"/>
    <tag k="cuisine" v="ice_cream"/>
    <tag k="name" v="Baskin-Robbins"/>
    <tag k="opening_hours" v="Mo-Th 12:00-21:00; Fr 12:00-22:00; Sa 11:30-22:00; Su 11:30-21:00"/>
    <tag k="phone" v="+1 530-298-9233"/>
    <tag k="source" v="survey"/>
    <tag k="website" v="https://locations.baskinrobbins.com/ca/davis/236-e-st-360139-br"/>
  </node>
  <node id="2618170089" version="1" timestamp="2014-01-11T04:06:17Z" lat="38.5445345" lon="-121.7406538">
    <tag k="addr:housenumber" v="622"/>
    <tag k="addr:street" v="3rd Street"/>
    <tag k="amenity" v="restaurant"/>
    <tag k="name" v="Manna Korean BBQ"/>
    <tag k="phone" v="(530)759-8888"/>
    <tag k="source" v="survey"/>
  </node>
  <node id="2618170090" version="1" timestamp="2014-01-11T04:06:17Z" lat="38.5441139" lon="-121.7405605">
    <tag k="addr:street" v="F Street"/>
    <tag k="amenity" v="restaurant"/>
    <tag k="cuisine" v="mexican"/>
    <tag k="name" v="Taqueria El Burrito"/>
    <tag k="source" v="survey"/>
  </node>
  <node id="2618170093" version="1" timestamp="2014-01-11T04:06:18Z" lat="38.5442541" lon="-121.7410074">
    <tag k="addr:housenumber" v="234"/>
    <tag k="addr:street" v="E Street"/>
    <tag k="amenity" v="restaurant"/>
    <tag k="cuisine" v="indian"/>
    <tag k="name" v="Yeti Restaurant"/>
    <tag k="phone" v="(530)747-0123"/>
    <tag k="source" v="survey"/>
  </node>
  <node id="2618170094" version="1" timestamp="2014-01-11T04:06:18Z" lat="38.5445095" lon="-121.7407938">
    <tag k="addr:housenumber" v="616"/>
    <tag k="addr:street" v="3rd Street"/>
    <tag k="amenity" v="restaurant"/>
    <tag k="name" v="Zia&apos;s Delicatessen"/>
    <tag k="phone" v="(530)750-7870"/>
    <tag k="source" v="survey"/>
  </node>
  <node id="3104414669" version="2" timestamp="2019-07-05T17:22:59Z" lat="38.5487701" lon="-121.7349122">
    <tag k="addr:city" v="Davis"/>
    <tag k="addr:housenumber" v="505 1/2"/>
    <tag k="addr:postcode" v="95616"/>
    <tag k="addr:street" v="L Street"/>
    <tag k="amenity" v="restaurant"/>
    <tag k="cuisine" v="mexican"/>
    <tag k="name" v="Taqueria Davis"/>
    <tag k="opening_hours" v="Mo-Sa 11:00-21:00"/>
    <tag k="smoking" v="no"/>
    <tag k="website" v="http://www.taqueriadavis.com/contact.php"/>
  </node>
  <node id="3189150468" version="4" timestamp="2020-11-10T03:06:00Z" lat="38.5424669" lon="-121.7409905">
    <tag k="addr:city" v="Davis"/>
    <tag k="addr:housenumber" v="117"/>
    <tag k="addr:postcode" v="95616"/>
    <tag k="addr:state" v="CA"/>
    <tag k="addr:street" v="E Street"/>
    <tag k="amenity" v="restaurant"/>
    <tag k="cuisine" v="thai"/>
    <tag k="name" v="Thai Canteen"/>
    <tag k="opening_hours" v="Tu-Sa 11:00-02:00; Su-Mo 11:00-22:00"/>
    <tag k="phone" v="530-231-5465"/>
    <tag k="source" v="http://canteendavis.com/"/>
    <tag k="website" v="https://canteendavis.com/"/>
  </node>
  <node id="3226037807" version="2" timestamp="2015-05-23T08:44:42Z" lat="38.5415229" lon="-121.7410729">
    <tag k="addr:city" v="Davis"/>
    <tag k="addr:housenumber" v="500"/>
    <tag k="addr:postcode" v="95616"/>
    <tag k="addr:state" v="CA"/>
    <tag k="addr:street" v="1st Street"/>
    <tag k="amenity" v="restaurant"/>
    <tag k="cuisine" v="sandwich"/>
    <tag k="name" v="Pluto&apos;s"/>
  </node>
  <node id="3226037809" version="2" timestamp="2015-05-22T06:00:53Z" lat="38.542355" lon="-121.7409538">
    <tag k="addr:city" v="Davis"/>
    <tag k="addr:housenumber" v="109"/>
    <tag k="addr:postcode" v="95616"/>
    <tag k="addr:state" v="CA"/>
    <tag k="addr:street" v="E Street"/>
    <tag k="amenity" v="restaurant"/>
    <tag k="cuisine" v="japanese"/>
    <tag k="name" v="Yakitori Yuchan"/>
  </node>
  <node id="3226063809" version="2" timestamp="2017-12-23T06:41:07Z" lat="38.5440282" lon="-121.7392265">
    <tag k="addr:city" v="Davis"/>
    <tag k="addr:housenumber" v="211"/>
    <tag k="addr:postcode" v="95616"/>
    <tag k="addr:state" v="CA"/>
    <tag k="addr:street" v="G Street"/>
    <tag k="amenity" v="pub"/>
    <tag k="name" v="The Davis Beer Shoppe"/>
    <tag k="outdoor_seating" v="no"/>
    <tag k="phone" v="(530) 756-5212"/>
    <tag k="smoking" v="no"/>
  </node>
  <node id="3385541430" version="5" timestamp="2025-01-25T17:49:22Z" lat="38.5412734" lon="-121.7237156">
    <tag k="addr:city" v="Davis"/>
    <tag k="addr:housenumber" v="2171"/>
    <tag k="addr:postcode" v="95618"/>
    <tag k="addr:state" v="CA"/>
    <tag k="addr:street" v="Cowell Boulevard"/>
    <tag k="amenity" v="cafe"/>
    <tag k="cuisine" v="coffee_shop"/>
    <tag k="internet_access" v="wlan"/>
    <tag k="internet_access:fee" v="no"/>
    <tag k="name" v="Common Grounds Coffee"/>
    <tag k="opening_hours" v="Mo-Fr 06:00-21:00; Sa-Su 06:30-21:00"/>
    <tag k="outdoor_seating" v="yes"/>
    <tag k="phone" v="+1 530-792-7312"/>
    <tag k="smoking" v="no"/>
    <tag k="source" v="local knowledge"/>
    <tag k="website" v="http://www.commongroundsdavis.com"/>
  </node>
  <node id="3534205995" version="3" timestamp="2023-01-23T18:04:44Z" lat="38.543661" lon="-121.7421078">
    <tag k="addr:city" v="Davis"/>
    <tag k="addr:housenumber" v="222"/>
    <tag k="addr:postcode" v="95616"/>
    <tag k="addr:state" v="CA"/>
    <tag k="addr:street" v="D Street"/>
    <tag k="amenity" v="cafe"/>
    <tag k="cuisine" v="tea;coffee"/>
    <tag k="internet_access" v="yes"/>
    <tag k="name" v="Tea List"/>
    <tag k="opening_hours" v="Tu-Th 10:30-17:30; Fr-Sa 10:00-18:00; Su 11:00-17:00"/>
  </node>
  <node id="3534205997" version="7" timestamp="2024-01-09T07:13:29Z" lat="38.543811" lon="-121.739927">
    <tag k="addr:city" v="Davis"/>
    <tag k="addr:housenumber" v="208"/>
    <tag k="addr:postcode" v="95616"/>
    <tag k="addr:state" v="CA"/>
    <tag k="addr:street" v="F Street"/>
    <tag k="amenity" v="cafe"/>
    <tag k="brand" v="Sharetea"/>
    <tag k="brand:wikidata" v="Q64827032"/>
    <tag k="cuisine" v="bubble_tea"/>
    <tag k="name" v="Sharetea"/>
    <tag k="name:en" v="Sharetea"/>
    <tag k="name:zh" v="æ­‡è…³äº­"/>
    <tag k="outdoor_seating" v="yes"/>
    <tag k="takeaway" v="yes"/>
  </node>
  <node id="3534205998" version="2" timestamp="2015-05-23T04:12:11Z" lat="38.54716" lon="-121.7402158">
    <tag k="addr:city" v="Davis"/>
    <tag k="addr:housenumber" v="431"/>
    <tag k="addr:postcode" v="95616"/>
    <tag k="addr:state" v="CA"/>
    <tag k="addr:street" v="G Street"/>
    <tag k="amenity" v="cafe"/>
    <tag k="cuisine" v="coffee_shop"/>
    <tag k="internet_access" v="yes"/>
    <tag k="name" v="Barista Brew Cafe"/>
  </node>
  <node id="3534205999" version="5" timestamp="2023-02-02T15:50:33Z" lat="38.5442221" lon="-121.7422161">
    <tag k="addr:city" v="Davis"/>
    <tag k="addr:housenumber" v="234"/>
    <tag k="addr:postcode" v="95616"/>
    <tag k="addr:state" v="CA"/>
    <tag k="addr:street" v="D Street"/>
    <tag k="amenity" v="cafe"/>
    <tag k="cuisine" v="coffee_shop"/>
    <tag k="internet_access" v="yes"/>
    <tag k="name" v="Cafe Bernardo"/>
    <tag k="opening_hours" v="Mo-Th 08:00-21:00; Fr, Sa 08:00-22:00; Su 09:00-22:00"/>
  </node>
  <node id="3534206000" version="3" timestamp="2020-02-14T14:49:16Z" lat="38.5439265" lon="-121.7422031">
    <tag k="addr:city" v="Davis"/>
    <tag k="addr:housenumber" v="222"/>
    <tag k="addr:postcode" v="95616"/>
    <tag k="addr:state" v="CA"/>
    <tag k="addr:street" v="D Street"/>
    <tag k="amenity" v="cafe"/>
    <tag k="cuisine" v="coffee_shop"/>
    <tag k="internet_access" v="yes"/>
    <tag k="name" v="Cloud Forest Cafe"/>
    <tag k="opening_hours" v="Mo-Th 08:00-18:00; Fr,Sa 08:00-19:30; Su 08:30-19:30"/>
  </node>
  <node id="3534206002" version="8" timestamp="2024-06-20T01:42:44Z" lat="38.562568" lon="-121.768905">
    <tag k="addr:city" v="Davis"/>
    <tag k="addr:housenumber" v="1435"/>
    <tag k="addr:postcode" v="95616"/>
    <tag k="addr:state" v="CA"/>
    <tag k="addr:street" v="West Covell Boulevard"/>
    <tag k="addr:unit" v="102"/>
    <tag k="amenity" v="cafe"/>
    <tag k="branch" v="Highway 113 &amp; Covell - Davis"/>
    <tag k="brand" v="Starbucks"/>
    <tag k="brand:wikidata" v="Q37158"/>
    <tag k="cuisine" v="coffee_shop"/>
    <tag k="internet_access" v="yes"/>
    <tag k="name" v="Starbucks"/>
    <tag k="official_name" v="Starbucks Coffee"/>
    <tag k="opening_hours" v="Mo-Su 05:00-22:00"/>
    <tag k="phone" v="+1 530-753-4756"/>
    <tag k="takeaway" v="yes"/>
    <tag k="website" v="https://www.starbucks.com/store-locator/store/8817/hwy-113-covell-davis-2038-lyndell-terrace-102-davis-ca-956166220-us"/>
  </node>
  <node id="3534206003" version="5" timestamp="2024-01-16T01:01:00Z" lat="38.5623601" lon="-121.7652099">
    <tag k="addr:city" v="Davis"/>
    <tag k="addr:housenumber" v="1411"/>
    <tag k="addr:postcode" v="95616"/>
    <tag k="addr:state" v="CA"/>
    <tag k="addr:street" v="West Covell Boulevard"/>
    <tag k="amenity" v="cafe"/>
    <tag k="brand" v="Peet&apos;s Coffee"/>
    <tag k="brand:wikidata" v="Q1094101"/>
    <tag k="cuisine" v="coffee_shop"/>
    <tag k="internet_access" v="yes"/>
    <tag k="name" v="Peet&apos;s Coffee"/>
    <tag k="opening_hours" v="Mo-Fr 05:30-19:00; Sa-Su 06:30-19:00"/>
    <tag k="takeaway" v="yes"/>
  </node>
  <node id="4104068489" version="3" timestamp="2024-01-09T07:13:29Z" lat="38.5437791" lon="-121.741468">
    <tag k="addr:housenumber" v="217"/>
    <tag k="addr:street" v="E Street"/>
    <tag k="amenity" v="pub"/>
    <tag k="internet_access" v="wlan"/>
    <tag k="name" v="Bull &apos;N Mouth"/>
    <tag k="opening_hours" v="Tu-We 11:00-22:00; Th-Sa 11:00-00:00"/>
  </node>
  <node id="4268393104" version="3" timestamp="2023-02-07T00:15:26Z" lat="38.5413604" lon="-121.740827">
    <tag k="addr:city" v="Davis"/>
    <tag k="addr:housenumber" v="500"/>
    <tag k="addr:postcode" v="95616"/>
    <tag k="addr:street" v="1st Street"/>
    <tag k="addr:unit" v="9"/>
    <tag k="amenity" v="restaurant"/>
    <tag k="cuisine" v="american"/>
    <tag k="diet:vegan" v="yes"/>
    <tag k="name" v="Burger Patch"/>
    <tag k="phone" v="+1 530-231-5023"/>
    <tag k="website" v="https://burgerpatch.com/"/>
  </node>
  <node id="4297142348" version="1" timestamp="2016-07-11T22:07:46Z" lat="38.5447561" lon="-121.7394144">
    <tag k="addr:city" v="Davis"/>
    <tag k="addr:housenumber" v="230"/>
    <tag k="addr:postcode" v="95616"/>
    <tag k="addr:state" v="CA"/>
    <tag k="addr:street" v="G Street"/>
    <tag k="amenity" v="cafe"/>
    <tag k="internet_access" v="yes"/>
    <tag k="name" v="Temple Coffee"/>
    <tag k="opening_hours" v="06:00-23:00"/>
  </node>
  <node id="4297147358" version="1" timestamp="2016-07-11T22:14:18Z" lat="38.5441142" lon="-121.7422817">
    <tag k="amenity" v="bar"/>
    <tag k="name" v="Bar Bernardo"/>
  </node>
  <node id="4297147359" version="1" timestamp="2016-07-11T22:14:18Z" lat="38.5616446" lon="-121.764344">
    <tag k="amenity" v="restaurant"/>
    <tag k="name" v="Jack&apos;s Urban Eats"/>
  </node>
  <node id="4297148350" version="1" timestamp="2016-07-11T22:18:06Z" lat="38.5448603" lon="-121.7405944">
    <tag k="amenity" v="pub"/>
    <tag k="name" v="University of Beer"/>
  </node>
  <node id="4507142626" version="3" timestamp="2024-01-16T01:01:00Z" lat="38.562429" lon="-121.7655019">
    <tag k="amenity" v="cafe"/>
    <tag k="brand" v="Gong Cha"/>
    <tag k="brand:wikidata" v="Q5581670"/>
    <tag k="brand:zh" v="è²¢èŒ¶"/>
    <tag k="cuisine" v="bubble_tea"/>
    <tag k="int_name" v="Gong Cha"/>
    <tag k="name" v="Gong Cha"/>
    <tag k="name:zh" v="è²¢èŒ¶"/>
    <tag k="takeaway" v="yes"/>
  </node>
  <node id="5067715922" version="1" timestamp="2017-08-30T01:08:21Z" lat="38.5432969" lon="-121.7390029">
    <tag k="amenity" v="restaurant"/>
    <tag k="cuisine" v="italian"/>
    <tag k="name" v="Paesano&apos;s"/>
    <tag k="name:en" v="Paesano&apos;s"/>
  </node>
  <node id="5300316847" version="6" timestamp="2024-05-23T10:51:55Z" lat="38.5464971" lon="-121.7395532">
    <tag k="addr:city" v="Davis"/>
    <tag k="addr:housenumber" v="408"/>
    <tag k="addr:postcode" v="95616"/>
    <tag k="addr:state" v="CA"/>
    <tag k="addr:street" v="G Street"/>
    <tag k="amenity" v="fast_food"/>
    <tag k="branch" v="Davis G Street"/>
    <tag k="brand" v="Wingstop"/>
    <tag k="brand:wikidata" v="Q8025339"/>
    <tag k="cuisine" v="wings"/>
    <tag k="delivery" v="no"/>
    <tag k="name" v="Wingstop"/>
    <tag k="opening_hours" v="11:00-24:00"/>
    <tag k="outdoor_seating" v="no"/>
    <tag k="phone" v="+1 530-759-9464"/>
    <tag k="smoking" v="no"/>
    <tag k="takeaway" v="yes"/>
  </node>
  <node id="5300335926" version="2" timestamp="2023-01-23T18:04:44Z" lat="38.5443313" lon="-121.7392843">
    <tag k="addr:city" v="Davis"/>
    <tag k="addr:housenumber" v="223"/>
    <tag k="addr:postcode" v="95616"/>
    <tag k="addr:state" v="CA"/>
    <tag k="addr:street" v="G Street"/>
    <tag k="amenity" v="restaurant"/>
    <tag k="cuisine" v="noodle;asian"/>
    <tag k="delivery" v="yes"/>
    <tag k="name" v="Red 88 Noodle Bar"/>
    <tag k="outdoor_seating" v="no"/>
    <tag k="smoking" v="no"/>
    <tag k="takeaway" v="yes"/>
  </node>
  <node id="5300335927" version="1" timestamp="2017-12-23T06:41:06Z" lat="38.5441132" lon="-121.7392287">
    <tag k="addr:city" v="Davis"/>
    <tag k="addr:housenumber" v="213"/>
    <tag k="addr:postcode" v="95616"/>
    <tag k="addr:state" v="CA"/>
    <tag k="addr:street" v="G Street"/>
    <tag k="amenity" v="restaurant"/>
    <tag k="cuisine" v="sushi;japanese;buffet"/>
    <tag k="delivery" v="no"/>
    <tag k="name" v="Fuji Sushi Boat &amp; Buffet"/>
    <tag k="outdoor_seating" v="no"/>
    <tag k="smoking" v="no"/>
  </node>
  <node id="5300335929" version="1" timestamp="2017-12-23T06:41:07Z" lat="38.5436795" lon="-121.7393439">
    <tag k="addr:city" v="Davis"/>
    <tag k="addr:housenumber" v="715"/>
    <tag k="addr:postcode" v="95616"/>
    <tag k="addr:state" v="CA"/>
    <tag k="addr:street" v="2nd Street"/>
    <tag k="amenity" v="restaurant"/>
    <tag k="cuisine" v="indian"/>
    <tag k="name" v="Preethi Indian Cuisine"/>
    <tag k="opening_hours" v="Mo-Su 10:00-22:00"/>
    <tag k="outdoor_seating" v="no"/>
    <tag k="smoking" v="no"/>
  </node>
  <node id="5300335930" version="3" timestamp="2023-01-23T18:04:44Z" lat="38.543756" lon="-121.739877">
    <tag k="addr:city" v="Davis"/>
    <tag k="addr:housenumber" v="206"/>
    <tag k="addr:postcode" v="95616"/>
    <tag k="addr:state" v="CA"/>
    <tag k="addr:street" v="F Street"/>
    <tag k="amenity" v="restaurant"/>
    <tag k="cuisine" v="bagel;breakfast;tea"/>
    <tag k="delivery" v="no"/>
    <tag k="name" v="The Posh Bagel"/>
    <tag k="opening_hours" v="06:00-16:30"/>
    <tag k="outdoor_seating" v="yes"/>
    <tag k="smoking" v="no"/>
    <tag k="takeaway" v="yes"/>
  </node>
  <node id="5300335931" version="3" timestamp="2024-01-16T01:01:00Z" lat="38.5439337" lon="-121.7399554">
    <tag k="addr:city" v="Davis"/>
    <tag k="addr:housenumber" v="212"/>
    <tag k="addr:postcode" v="95616"/>
    <tag k="addr:state" v="CA"/>
    <tag k="addr:street" v="F Street"/>
    <tag k="amenity" v="restaurant"/>
    <tag k="brand" v="Blaze Pizza"/>
    <tag k="brand:wikidata" v="Q23016666"/>
    <tag k="cuisine" v="pizza"/>
    <tag k="name" v="Blaze Pizza"/>
  </node>
  <node id="5300376122" version="1" timestamp="2017-12-23T07:31:09Z" lat="38.540339" lon="-121.7320895">
    <tag k="addr:city" v="Davis"/>
    <tag k="addr:housenumber" v="1601"/>
    <tag k="addr:postcode" v="95618"/>
    <tag k="addr:state" v="CA"/>
    <tag k="addr:street" v="Research Park Drive"/>
    <tag k="amenity" v="restaurant"/>
    <tag k="cuisine" v="chinese;italian"/>
    <tag k="delivery" v="no"/>
    <tag k="name" v="Four Seasons Gourmet Chinese"/>
    <tag k="outdoor_seating" v="no"/>
    <tag k="smoking" v="no"/>
    <tag k="takeaway" v="yes"/>
  </node>
  <node id="5300387851" version="4" timestamp="2019-11-05T14:13:59Z" lat="38.5410495" lon="-121.723634">
    <tag k="addr:city" v="Davis"/>
    <tag k="addr:housenumber" v="2191"/>
    <tag k="addr:postcode" v="95618"/>
    <tag k="addr:state" v="CA"/>
    <tag k="addr:street" v="Cowell Boulevard"/>
    <tag k="amenity" v="restaurant"/>
    <tag k="cuisine" v="tex-mex;mexican"/>
    <tag k="delivery" v="no"/>
    <tag k="name" v="Dos Coyotes Border Cafe"/>
    <tag k="opening_hours" v="Mo-Su 11:00-21:30"/>
    <tag k="outdoor_seating" v="yes"/>
    <tag k="phone" v="+1-530-758-1400"/>
    <tag k="source" v="local knowledge"/>
    <tag k="takeaway" v="yes"/>
  </node>
  <node id="5300387852" version="6" timestamp="2025-01-25T17:49:22Z" lat="38.5408728" lon="-121.7238617">
    <tag k="addr:city" v="Davis"/>
    <tag k="addr:housenumber" v="2191"/>
    <tag k="addr:postcode" v="95618"/>
    <tag k="addr:state" v="CA"/>
    <tag k="addr:street" v="Cowell Boulevard"/>
    <tag k="addr:unit" v="Suite F"/>
    <tag k="amenity" v="restaurant"/>
    <tag k="cuisine" v="sandwich;soup"/>
    <tag k="delivery" v="no"/>
    <tag k="name" v="Mr Pickle&apos;s Sandwich Shop"/>
    <tag k="opening_hours" v="Mo-Sa 10:00-19:00; Su 11:00-17:00"/>
    <tag k="outdoor_seating" v="yes"/>
    <tag k="phone" v="+1-530-297-1300"/>
    <tag k="smoking" v="no"/>
    <tag k="source" v="local knowledge"/>
    <tag k="takeaway" v="yes"/>
  </node>
  <node id="5301304718" version="3" timestamp="2019-11-05T14:14:11Z" lat="38.5409226" lon="-121.7238086">
    <tag k="addr:city" v="Davis"/>
    <tag k="addr:housenumber" v="2191"/>
    <tag k="addr:postcode" v="95618"/>
    <tag k="addr:state" v="CA"/>
    <tag k="addr:street" v="Cowell Boulevard"/>
    <tag k="addr:unit" v="Suite E"/>
    <tag k="amenity" v="cafe"/>
    <tag k="cuisine" v="bubble_tea;cafe"/>
    <tag k="internet_access" v="no"/>
    <tag k="name" v="Teabo CafÃ©"/>
    <tag k="opening_hours" v="Mo-Su 08:00-02:00"/>
    <tag k="outdoor_seating" v="yes"/>
    <tag k="smoking" v="no"/>
  </node>
  <node id="5301352991" version="12" timestamp="2024-06-20T01:42:44Z" lat="38.5413483" lon="-121.725188">
    <tag k="addr:city" v="Davis"/>
    <tag k="addr:housenumber" v="2121"/>
    <tag k="addr:postcode" v="96516"/>
    <tag k="addr:state" v="CA"/>
    <tag k="addr:street" v="Cowell Boulevard"/>
    <tag k="amenity" v="cafe"/>
    <tag k="branch" v="Safeway Davis 1561"/>
    <tag k="brand" v="Starbucks"/>
    <tag k="brand:wikidata" v="Q37158"/>
    <tag k="cuisine" v="coffee_shop"/>
    <tag k="internet_access" v="no"/>
    <tag k="name" v="Starbucks"/>
    <tag k="note" v="Inside Safeway"/>
    <tag k="official_name" v="Starbucks Coffee"/>
    <tag k="opening_hours" v="Mo-Su 06:00-20:00"/>
    <tag k="outdoor_seating" v="no"/>
    <tag k="phone" v="+1 530-792-8500"/>
    <tag k="smoking" v="no"/>
    <tag k="takeaway" v="yes"/>
    <tag k="website" v="https://www.starbucks.com/store-locator/store/12490/safeway-davis-1561-2121-cowell-blvd-davis-ca-956186388-us"/>
  </node>
  <node id="5497960989" version="5" timestamp="2023-07-25T21:30:39Z" lat="38.4695107" lon="-121.821823">
    <tag k="addr:city" v="Dixon"/>
    <tag k="addr:housenumber" v="105"/>
    <tag k="addr:postcode" v="95620"/>
    <tag k="addr:state" v="CA"/>
    <tag k="addr:street" v="East Dorset Drive"/>
    <tag k="addr:unit" v="Unit A"/>
    <tag k="amenity" v="restaurant"/>
    <tag k="cuisine" v="mexican"/>
    <tag k="name" v="La Cocina Mexicana Restaurante"/>
    <tag k="opening_hours" v="Mo-Fr 10:30-21:00, Sa 09:30-21:00, Su 08:30-20:00"/>
    <tag k="outdoor_seating" v="no"/>
    <tag k="phone" v="1 (707) 693-1102"/>
    <tag k="smoking" v="no"/>
    <tag k="website" v="https://www.lacocinadixon.com/"/>
  </node>
  <node id="5502429733" version="4" timestamp="2024-05-21T16:53:46Z" lat="38.469582" lon="-121.8218268">
    <tag k="amenity" v="fast_food"/>
    <tag k="brand" v="Papa Murphy&apos;s"/>
    <tag k="brand:wikidata" v="Q7132349"/>
    <tag k="cuisine" v="pizza"/>
    <tag k="disused:amenity" v="restaurant"/>
    <tag k="drive_through" v="no"/>
    <tag k="name" v="Papa Murphy&apos;s"/>
    <tag k="note" v="Permanently Closed"/>
    <tag k="official_name" v="Papa Murphy&apos;s Take &apos;N&apos; Bake Pizza"/>
    <tag k="opening_hours" v="closed"/>
    <tag k="outdoor_seating" v="no"/>
    <tag k="takeaway" v="only"/>
  </node>
  <node id="5599541308" version="1" timestamp="2018-05-06T03:44:25Z" lat="38.5417644" lon="-121.7437224">
    <tag k="addr:city" v="Davis"/>
    <tag k="addr:housenumber" v="305"/>
    <tag k="addr:postcode" v="95616"/>
    <tag k="addr:state" v="CA"/>
    <tag k="addr:street" v="1st Street"/>
    <tag k="amenity" v="restaurant"/>
    <tag k="cuisine" v="mexican"/>
    <tag k="name" v="Davis&apos;s PiÃ±ata Mexican Grill"/>
    <tag k="opening_hours" v="Su-We 08:00-23:00, Th-Sa 08:00-23:30"/>
    <tag k="outdoor_seating" v="yes"/>
    <tag k="takeaway" v="yes"/>
  </node>
  <node id="5599713920" version="1" timestamp="2018-05-06T07:29:17Z" lat="38.5348776" lon="-121.7487187">
    <tag k="amenity" v="restaurant"/>
    <tag k="name" v="Fushion Fresh Cafe"/>
  </node>
  <node id="5754875821" version="4" timestamp="2024-01-16T01:01:00Z" lat="38.5433518" lon="-121.741271">
    <tag k="addr:city" v="Davis"/>
    <tag k="addr:housenumber" v="521"/>
    <tag k="addr:postcode" v="95616"/>
    <tag k="addr:state" v="CA"/>
    <tag k="addr:street" v="2nd Street"/>
    <tag k="amenity" v="cafe"/>
    <tag k="brand" v="Philz Coffee"/>
    <tag k="brand:wikidata" v="Q18156812"/>
    <tag k="cuisine" v="coffee_shop"/>
    <tag k="internet_access" v="wlan"/>
    <tag k="name" v="Philz Coffee"/>
    <tag k="opening_hours" v="Mo-Su 06:00-20:00"/>
    <tag k="outdoor_seating" v="yes"/>
    <tag k="phone" v="+15302315255"/>
    <tag k="takeaway" v="yes"/>
    <tag k="website" v="https://www.philzcoffee.com/"/>
  </node>
  <node id="5941864978" version="4" timestamp="2024-05-08T23:14:10Z" lat="38.5504069" lon="-121.7015723">
    <tag k="addr:city" v="Davis"/>
    <tag k="addr:housenumber" v="4120"/>
    <tag k="addr:postcode" v="95618"/>
    <tag k="addr:state" v="CA"/>
    <tag k="addr:street" v="Chiles Road"/>
    <tag k="addr:unit" v="B"/>
    <tag k="amenity" v="fast_food"/>
    <tag k="brand" v="Domino&apos;s"/>
    <tag k="brand:wikidata" v="Q839466"/>
    <tag k="cuisine" v="pizza"/>
    <tag k="name" v="Domino&apos;s"/>
    <tag k="opening_hours" v="Mo-Th 10:30-24:00; Fr-Sa 10:30-01:00; Su 10:30-24:00"/>
    <tag k="phone" v="+1 530-204-1212"/>
    <tag k="ref" v="8696"/>
    <tag k="takeaway" v="yes"/>
    <tag k="website" v="https://pizza.dominos.com/california/davis/4120-chiles-rd-unit-b"/>
  </node>
  <node id="6086793586" version="1" timestamp="2018-11-24T01:36:20Z" lat="38.5321281" lon="-121.7889314">
    <tag k="amenity" v="vending_machine"/>
    <tag k="currency:USD" v="yes"/>
    <tag k="note" v="100LL only"/>
    <tag k="payment:credit_cards" v="yes"/>
    <tag k="vending" v="fuel"/>
  </node>
  <node id="6506447040" version="1" timestamp="2019-05-28T15:26:58Z" lat="38.5448156" lon="-121.731122">
    <tag k="amenity" v="bar"/>
    <tag k="craft" v="brewery"/>
    <tag k="name" v="Dunloe Brewing"/>
  </node>
  <node id="7229119243" version="1" timestamp="2020-02-20T01:17:17Z" lat="38.5496818" lon="-121.6959899">
    <tag k="amenity" v="restaurant"/>
    <tag k="cuisine" v="japanese"/>
    <tag k="name" v="Huku Bistro"/>
  </node>
  <node id="7294902428" version="7" timestamp="2024-06-20T01:42:49Z" lat="38.4571518" lon="-121.839145">
    <tag k="addr:city" v="Dixon"/>
    <tag k="addr:housenumber" v="1235"/>
    <tag k="addr:postcode" v="95620"/>
    <tag k="addr:state" v="CA"/>
    <tag k="addr:street" v="Stratford Avenue"/>
    <tag k="amenity" v="cafe"/>
    <tag k="branch" v="Safeway Dixon 1258"/>
    <tag k="brand" v="Starbucks"/>
    <tag k="brand:wikidata" v="Q37158"/>
    <tag k="cuisine" v="coffee_shop"/>
    <tag k="name" v="Starbucks"/>
    <tag k="official_name" v="Starbucks Coffee"/>
    <tag k="phone" v="+1 707-678-7400"/>
    <tag k="ref" v="9847"/>
    <tag k="takeaway" v="yes"/>
    <tag k="website" v="https://www.starbucks.com/store-locator/store/9847/safeway-dixon-1258-1235-stratford-ave-dixon-ca-956202024-us"/>
  </node>
  <node id="7295116654" version="4" timestamp="2024-05-10T23:40:16Z" lat="38.456977" lon="-121.8433959">
    <tag k="addr:city" v="Dixon"/>
    <tag k="addr:housenumber" v="1450"/>
    <tag k="addr:postcode" v="95620"/>
    <tag k="addr:state" v="CA"/>
    <tag k="addr:street" v="Ary Lane"/>
    <tag k="addr:unit" v="F"/>
    <tag k="amenity" v="cafe"/>
    <tag k="branch" v="I-80 &amp; Pitt School - Dixon"/>
    <tag k="brand" v="Starbucks"/>
    <tag k="brand:wikidata" v="Q37158"/>
    <tag k="cuisine" v="coffee_shop"/>
    <tag k="internet_access" v="yes"/>
    <tag k="internet_access:fee" v="no"/>
    <tag k="name" v="Starbucks"/>
    <tag k="official_name" v="Starbucks Coffee"/>
    <tag k="outdoor_seating" v="no"/>
    <tag k="phone" v="+1 707-693-1542"/>
    <tag k="takeaway" v="yes"/>
    <tag k="website" v="https://www.starbucks.com/store-locator/store/14902/i-80-pitt-school-dixon-1450-ary-lane-dixon-landing-dixon-ca-956204413-us"/>
  </node>
  <node id="7295116655" version="6" timestamp="2024-05-21T16:20:47Z" lat="38.4572124" lon="-121.843017">
    <tag k="addr:city" v="Dixon"/>
    <tag k="addr:housenumber" v="1450"/>
    <tag k="addr:postcode" v="95620"/>
    <tag k="addr:state" v="CA"/>
    <tag k="addr:street" v="Ary Lane"/>
    <tag k="addr:unit" v="A"/>
    <tag k="amenity" v="fast_food"/>
    <tag k="brand" v="Domino&apos;s"/>
    <tag k="brand:wikidata" v="Q839466"/>
    <tag k="cuisine" v="pizza"/>
    <tag k="disused:amenity" v="restaurant"/>
    <tag k="drive_through" v="no"/>
    <tag k="fixme:atp" v="Check if still exists. No corresponding ATP object."/>
    <tag k="name" v="Domino&apos;s"/>
    <tag k="note" v="Permanently closed"/>
    <tag k="opening_hours" v="closed"/>
    <tag k="phone" v="(707) 394-8080"/>
    <tag k="takeaway" v="yes"/>
    <tag k="website" v="https://pizza.dominos.com/california/dixon/1450-ary-lane/"/>
  </node>
  <node id="7295116656" version="6" timestamp="2024-05-19T11:55:47Z" lat="38.45741" lon="-121.842767">
    <tag k="addr:city" v="Dixon"/>
    <tag k="addr:housenumber" v="1440"/>
    <tag k="addr:postcode" v="95620"/>
    <tag k="addr:state" v="CA"/>
    <tag k="addr:street" v="Ary Lane"/>
    <tag k="addr:unit" v="A"/>
    <tag k="amenity" v="fast_food"/>
    <tag k="brand" v="Subway"/>
    <tag k="brand:wikidata" v="Q244457"/>
    <tag k="cuisine" v="sandwich"/>
    <tag k="name" v="Subway"/>
    <tag k="opening_hours" v="08:30-21:30"/>
    <tag k="phone" v="+1 707-678-2100"/>
    <tag k="takeaway" v="yes"/>
    <tag k="website" v="https://restaurants.subway.com/united-states/ca/dixon/1440-ary-ln"/>
  </node>
  <node id="7295116657" version="6" timestamp="2024-06-04T10:15:39Z" lat="38.4576221" lon="-121.8425034">
    <tag k="addr:city" v="Dixon"/>
    <tag k="addr:housenumber" v="1440"/>
    <tag k="addr:postcode" v="95620"/>
    <tag k="addr:state" v="CA"/>
    <tag k="addr:street" v="Ary Lane"/>
    <tag k="amenity" v="ice_cream"/>
    <tag k="brand" v="Baskin-Robbins"/>
    <tag k="brand:wikidata" v="Q584601"/>
    <tag k="cuisine" v="ice_cream"/>
    <tag k="name" v="Baskin-Robbins"/>
    <tag k="opening_hours" v="12:00-22:00"/>
    <tag k="phone" v="+1 707-678-4678"/>
    <tag k="website" v="https://locations.baskinrobbins.com/ca/dixon/1440-ary-ln-362152-br"/>
  </node>
  <node id="7295116658" version="3" timestamp="2024-02-01T13:30:26Z" lat="38.4563453" lon="-121.8414339">
    <tag k="amenity" v="fast_food"/>
    <tag k="brand" v="Little Caesars"/>
    <tag k="brand:wikidata" v="Q1393809"/>
    <tag k="cuisine" v="pizza"/>
    <tag k="name" v="Little Caesars"/>
    <tag k="takeaway" v="yes"/>
    <tag k="website" v="https://littlecaesars.com/en-us/store/8127/"/>
  </node>
  <node id="7295116662" version="1" timestamp="2020-03-14T20:38:05Z" lat="38.456196" lon="-121.8414327">
    <tag k="amenity" v="restaurant"/>
    <tag k="cuisine" v="chinese"/>
    <tag k="name" v="Asian Garden"/>
  </node>
  <node id="7295594141" version="4" timestamp="2024-05-19T11:55:47Z" lat="38.4717151" lon="-121.8198165">
    <tag k="addr:city" v="Dixon"/>
    <tag k="addr:housenumber" v="235"/>
    <tag k="addr:postcode" v="95620"/>
    <tag k="addr:state" v="CA"/>
    <tag k="addr:street" v="East Dorset Drive"/>
    <tag k="amenity" v="fast_food"/>
    <tag k="brand" v="Subway"/>
    <tag k="brand:wikidata" v="Q244457"/>
    <tag k="cuisine" v="sandwich"/>
    <tag k="name" v="Subway"/>
    <tag k="opening_hours" v="08:00-21:00"/>
    <tag k="phone" v="+1 707-678-4501"/>
    <tag k="takeaway" v="yes"/>
    <tag k="website" v="https://restaurants.subway.com/united-states/ca/dixon/235-e-dorset-dr"/>
  </node>
  <node id="7295613542" version="3" timestamp="2024-06-04T10:24:40Z" lat="38.4680184" lon="-121.8229906">
    <tag k="addr:city" v="Dixon"/>
    <tag k="addr:housenumber" v="2375"/>
    <tag k="addr:postcode" v="95620"/>
    <tag k="addr:state" v="CA"/>
    <tag k="addr:street" v="North First Street"/>
    <tag k="amenity" v="cafe"/>
    <tag k="branch" v="Dixon"/>
    <tag k="brand" v="Dutch Bros. Coffee"/>
    <tag k="brand:wikidata" v="Q5317253"/>
    <tag k="cuisine" v="coffee_shop"/>
    <tag k="name" v="Dutch Bros. Coffee"/>
    <tag k="opening_hours" v="05:00-23:00"/>
    <tag k="outdoor_seating" v="yes"/>
    <tag k="ref" v="DB254"/>
    <tag k="takeaway" v="only"/>
    <tag k="website" v="https://locations.dutchbros.com/dutch-bros-coffee-bfda58b2c460"/>
  </node>
  <node id="8208039635" version="4" timestamp="2024-05-19T11:55:47Z" lat="38.5616923" lon="-121.7693918">
    <tag k="addr:city" v="Davis"/>
    <tag k="addr:housenumber" v="2014"/>
    <tag k="addr:postcode" v="95616"/>
    <tag k="addr:state" v="CA"/>
    <tag k="addr:street" v="Lyndell Terrace"/>
    <tag k="addr:unit" v="B"/>
    <tag k="amenity" v="fast_food"/>
    <tag k="brand" v="Subway"/>
    <tag k="brand:wikidata" v="Q244457"/>
    <tag k="cuisine" v="sandwich"/>
    <tag k="name" v="Subway"/>
    <tag k="opening_hours" v="09:00-21:00"/>
    <tag k="phone" v="+1 530-792-1084"/>
    <tag k="takeaway" v="yes"/>
    <tag k="website" v="https://restaurants.subway.com/united-states/ca/davis/2014-lyndell-terrace"/>
  </node>
  <node id="8939553214" version="5" timestamp="2024-06-20T01:42:49Z" lat="38.5435347" lon="-121.740234">
    <tag k="addr:city" v="Davis"/>
    <tag k="addr:housenumber" v="623"/>
    <tag k="addr:postcode" v="95616"/>
    <tag k="addr:state" v="CA"/>
    <tag k="addr:street" v="2nd Street"/>
    <tag k="amenity" v="cafe"/>
    <tag k="branch" v="2nd &amp; F St"/>
    <tag k="brand" v="Starbucks"/>
    <tag k="brand:wikidata" v="Q37158"/>
    <tag k="cuisine" v="coffee_shop"/>
    <tag k="name" v="Starbucks"/>
    <tag k="official_name" v="Starbucks Coffee"/>
    <tag k="phone" v="+1 530-297-7030"/>
    <tag k="ref" v="1025107"/>
    <tag k="takeaway" v="yes"/>
    <tag k="website" v="https://www.starbucks.com/store-locator/store/1025107/2nd-f-st-623-2nd-st-davis-ca-956164620-us"/>
  </node>
  <node id="9041940996" version="1" timestamp="2021-08-27T22:12:33Z" lat="38.5413269" lon="-121.7407672">
    <tag k="amenity" v="restaurant"/>
    <tag k="cuisine" v="asian"/>
    <tag k="name" v="Burma Eat"/>
  </node>
  <node id="9048755707" version="2" timestamp="2024-01-16T01:01:00Z" lat="38.5624223" lon="-121.7654076">
    <tag k="alt_name" v="Mountain Mike&apos;s Pizza"/>
    <tag k="amenity" v="restaurant"/>
    <tag k="brand" v="Mountain Mike&apos;s"/>
    <tag k="brand:wikidata" v="Q6925120"/>
    <tag k="cuisine" v="pizza"/>
    <tag k="name" v="Mountain Mike&apos;s"/>
    <tag k="takeaway" v="yes"/>
  </node>
  <node id="9861581756" version="4" timestamp="2024-06-20T01:42:49Z" lat="38.4688858" lon="-121.8218721">
    <tag k="addr:city" v="Dixon"/>
    <tag k="addr:housenumber" v="2590"/>
    <tag k="addr:postcode" v="95620"/>
    <tag k="addr:state" v="CA"/>
    <tag k="addr:street" v="North First Street"/>
    <tag k="amenity" v="cafe"/>
    <tag k="branch" v="North 1st &amp; East Dorset"/>
    <tag k="brand" v="Starbucks"/>
    <tag k="brand:wikidata" v="Q37158"/>
    <tag k="cuisine" v="coffee_shop"/>
    <tag k="name" v="Starbucks"/>
    <tag k="official_name" v="Starbucks Coffee"/>
    <tag k="phone" v="+1 707-410-8450"/>
    <tag k="ref" v="1023715"/>
    <tag k="takeaway" v="yes"/>
    <tag k="website" v="https://www.starbucks.com/store-locator/store/1023715/n-1st-e-dorset-2590-n-first-street-dixon-ca-956209227-us"/>
  </node>
  <node id="9861581757" version="2" timestamp="2024-05-21T10:42:11Z" lat="38.468557" lon="-121.8218151">
    <tag k="addr:city" v="Dixon"/>
    <tag k="addr:housenumber" v="2580"/>
    <tag k="addr:postcode" v="95620"/>
    <tag k="addr:state" v="CA"/>
    <tag k="addr:street" v="North First Street"/>
    <tag k="amenity" v="fast_food"/>
    <tag k="branch" v="North First Street &amp; East Dorset Drive"/>
    <tag k="brand" v="Panda Express"/>
    <tag k="brand:wikidata" v="Q1358690"/>
    <tag k="cuisine" v="chinese"/>
    <tag k="name" v="Panda Express"/>
    <tag k="opening_hours" v="09:00-20:30"/>
    <tag k="phone" v="+1 707-640-1930"/>
    <tag k="takeaway" v="yes"/>
    <tag k="website" v="https://www.pandaexpress.com/locations/ca/dixon/2973"/>
  </node>
  <node id="9936794816" version="1" timestamp="2022-08-07T07:12:38Z" lat="38.5388615" lon="-121.7532003">
    <tag k="amenity" v="restaurant"/>
    <tag k="cuisine" v="french"/>
    <tag k="name" v="Crepe Bistro"/>
    <tag k="opening_hours" v="Mo-Fr 10:00-15:00"/>
    <tag k="website" v="https://housing.ucdavis.edu/dining/crepe-bistro/"/>
  </node>
  <node id="9936806517" version="1" timestamp="2022-08-07T07:12:38Z" lat="38.53876" lon="-121.753214">
    <tag k="amenity" v="restaurant"/>
    <tag k="cuisine" v="american"/>
    <tag k="name" v="Spokes Grill"/>
    <tag k="opening_hours" v="Mo-Fr 10:30-14:30"/>
    <tag k="website" v="https://housing.ucdavis.edu/dining/spokes-grill/"/>
  </node>
  <node id="10224800432" version="2" timestamp="2024-06-04T10:24:40Z" lat="38.4557854" lon="-121.8412901">
    <tag k="addr:city" v="Dixon"/>
    <tag k="addr:housenumber" v="1115"/>
    <tag k="addr:postcode" v="95620"/>
    <tag k="addr:state" v="CA"/>
    <tag k="addr:street" v="Pitt School Road"/>
    <tag k="amenity" v="cafe"/>
    <tag k="brand" v="Dutch Bros. Coffee"/>
    <tag k="brand:wikidata" v="Q5317253"/>
    <tag k="cuisine" v="coffee_shop"/>
    <tag k="name" v="Dutch Bros. Coffee"/>
    <tag k="opening_hours" v="05:00-23:00"/>
    <tag k="ref" v="DB355"/>
    <tag k="takeaway" v="only"/>
    <tag k="website" v="https://locations.dutchbros.com/dutch-bros-coffee-86e9b7851f07"/>
  </node>
  <node id="10224807712" version="2" timestamp="2024-05-21T16:50:59Z" lat="38.4583263" lon="-121.8392641">
    <tag k="addr:city" v="Dixon"/>
    <tag k="addr:housenumber" v="1250"/>
    <tag k="addr:postcode" v="95620"/>
    <tag k="addr:state" v="CA"/>
    <tag k="addr:street" v="Stratford Avenue"/>
    <tag k="amenity" v="restaurant"/>
    <tag k="brand" v="Denny&apos;s"/>
    <tag k="brand:wikidata" v="Q1189695"/>
    <tag k="cuisine" v="american"/>
    <tag k="name" v="Denny&apos;s"/>
    <tag k="opening_hours" v="24/7"/>
    <tag k="phone" v="+17076781002"/>
    <tag k="website" v="https://locations.dennys.com/CA/DIXON/246979"/>
  </node>
  <node id="10591061877" version="1" timestamp="2023-01-29T04:05:07Z" lat="38.546557" lon="-121.7603494">
    <tag k="amenity" v="fast_food"/>
    <tag k="cuisine" v="mediterranean"/>
    <tag k="diet:halal" v="only"/>
    <tag k="name" v="Shah&apos;s Halal Food"/>
  </node>
  <node id="10735369400" version="2" timestamp="2024-12-30T02:08:03Z" lat="38.5379404" lon="-121.756243">
    <tag k="alt_name" v="Latitude Dining Commons"/>
    <tag k="amenity" v="restaurant"/>
    <tag k="name" v="Latitude Restaurant"/>
    <tag k="wheelchair" v="yes"/>
  </node>
  <node id="10762241305" version="1" timestamp="2023-03-25T23:26:36Z" lat="38.5444687" lon="-121.7389481">
    <tag k="amenity" v="bar"/>
    <tag k="name" v="Wundebar"/>
  </node>
  <node id="11473458469" version="1" timestamp="2023-12-31T17:57:20Z" lat="38.5499773" lon="-121.7401545">
    <tag k="amenity" v="restaurant"/>
    <tag k="name" v="Hunan Style"/>
    <tag k="name:zh" v="é‚£å®¶æ¹–èœ"/>
  </node>
  <node id="11502448477" version="2" timestamp="2024-10-14T08:23:37Z" lat="38.5438846" lon="-121.7399361">
    <tag k="amenity" v="fast_food"/>
    <tag k="brand" v="Ike&apos;s Love and Sandwiches"/>
    <tag k="brand:wikidata" v="Q112028897"/>
    <tag k="check_date" v="2024-10-14"/>
    <tag k="check_date:opening_hours" v="2024-10-14"/>
    <tag k="cuisine" v="sandwich"/>
    <tag k="name" v="Ike&apos;s Love and Sandwiches"/>
    <tag k="opening_hours" v="Mo-Su 10:00-21:00"/>
    <tag k="phone" v="+1 530-746-2525"/>
    <tag k="short_name" v="Ike&apos;s"/>
    <tag k="takeaway" v="yes"/>
    <tag k="website" v="https://locations.ikessandwich.com/ca/davis/120/"/>
  </node>
  <node id="11502448480" version="1" timestamp="2024-01-09T07:13:29Z" lat="38.5435224" lon="-121.7386878">
    <tag k="addr:city" v="Davis"/>
    <tag k="addr:housenumber" v="130"/>
    <tag k="addr:postcode" v="95616"/>
    <tag k="addr:state" v="CA"/>
    <tag k="addr:street" v="G Street"/>
    <tag k="amenity" v="cafe"/>
    <tag k="cuisine" v="coffee_shop"/>
    <tag k="indoor_seating" v="yes"/>
    <tag k="internet_access" v="wlan"/>
    <tag k="name" v="Pachamama Coffee"/>
    <tag k="outdoor_seating" v="sidewalk"/>
    <tag k="website" v="https://pachamamacoffee.com/"/>
  </node>
  <node id="11502448481" version="1" timestamp="2024-01-09T07:13:29Z" lat="38.5434591" lon="-121.7390369">
    <tag k="addr:city" v="Davis"/>
    <tag k="addr:housenumber" v="726"/>
    <tag k="addr:postcode" v="95616"/>
    <tag k="addr:state" v="CA"/>
    <tag k="addr:street" v="2nd Street"/>
    <tag k="amenity" v="bar"/>
    <tag k="brewery" v="various"/>
    <tag k="name" v="Froggy&apos;s"/>
  </node>
  <node id="11502448482" version="1" timestamp="2024-01-09T07:13:29Z" lat="38.5435067" lon="-121.7413758">
    <tag k="addr:city" v="Davis"/>
    <tag k="addr:housenumber" v="207"/>
    <tag k="addr:postcode" v="95616"/>
    <tag k="addr:state" v="CA"/>
    <tag k="addr:street" v="E Street"/>
    <tag k="amenity" v="fast_food"/>
    <tag k="brand" v="Raising Cane&apos;s"/>
    <tag k="brand:wikidata" v="Q7285144"/>
    <tag k="cuisine" v="chicken"/>
    <tag k="name" v="Raising Cane&apos;s"/>
    <tag k="official_name" v="Raising Cane&apos;s Chicken Fingers"/>
    <tag k="takeaway" v="yes"/>
  </node>
  <node id="11502448483" version="1" timestamp="2024-01-09T07:13:29Z" lat="38.5469038" lon="-121.7396664">
    <tag k="addr:city" v="Davis"/>
    <tag k="addr:housenumber" v="424"/>
    <tag k="addr:postcode" v="95616"/>
    <tag k="addr:state" v="CA"/>
    <tag k="addr:street" v="G Street"/>
    <tag k="amenity" v="restaurant"/>
    <tag k="cuisine" v="vietnamese"/>
    <tag k="name" v="Sit Lo Saigon"/>
  </node>
  <node id="11922769563" version="1" timestamp="2024-05-21T17:02:52Z" lat="38.4697872" lon="-121.8212008">
    <tag k="addr:city" v="Dixon"/>
    <tag k="addr:housenumber" v="115"/>
    <tag k="addr:postcode" v="95620"/>
    <tag k="addr:state" v="CA"/>
    <tag k="addr:street" v="Dorset Drive"/>
    <tag k="amenity" v="restaurant"/>
    <tag k="cuisine" v="chicken"/>
    <tag k="name" v="Kiki&apos;s Chicken Place"/>
    <tag k="opening_hours" v="Su-Th 11:00-22:00; Fr-Sa 10:00-24:00"/>
    <tag k="phone" v="707-316-8218"/>
    <tag k="website" v="https://kikischicken.com/"/>
  </node>
  <node id="12387173501" version="1" timestamp="2024-11-30T21:57:31Z" lat="38.5434646" lon="-121.7413209">
    <tag k="addr:housenumber" v="207"/>
    <tag k="addr:postcode" v="95616"/>
    <tag k="addr:street" v="E Street"/>
    <tag k="amenity" v="fast_food"/>
    <tag k="cuisine" v="american;burger;chicken"/>
    <tag k="name" v="Raising Cane&apos;s"/>
  </node>
  <node id="12387178201" version="1" timestamp="2024-11-30T22:01:03Z" lat="38.5433867" lon="-121.7409709">
    <tag k="addr:housenumber" v="200"/>
    <tag k="addr:postcode" v="95616"/>
    <tag k="addr:street" v="E Street"/>
    <tag k="amenity" v="fast_food"/>
    <tag k="cuisine" v="american;mexican"/>
    <tag k="name" v="El patio"/>
  </node>
  <node id="12387178202" version="1" timestamp="2024-11-30T22:04:42Z" lat="38.5436076" lon="-121.7410521">
    <tag k="addr:housenumber" v="206"/>
    <tag k="addr:postcode" v="95616"/>
    <tag k="addr:street" v="E Street"/>
    <tag k="amenity" v="fast_food"/>
    <tag k="cuisine" v="greek"/>
    <tag k="name" v="Nick the Greek"/>
  </node>
  <node id="12587489935" version="1" timestamp="2025-02-14T12:12:51Z" lat="38.4697929" lon="-121.823858">
    <tag k="addr:city" v="Dixon"/>
    <tag k="addr:housenumber" v="170"/>
    <tag k="addr:postcode" v="95620"/>
    <tag k="addr:state" v="CA"/>
    <tag k="addr:street" v="Dorset Drive"/>
    <tag k="amenity" v="fast_food"/>
    <tag k="cuisine" v="mexican"/>
    <tag k="opening_hours" v="Mo-Su 6:00-23:00"/>
    <tag k="operator" v="California Burrito"/>
    <tag k="website" v="https://www.eatcaliforniaburrito.com/"/>
  </node>
</osm>
